STARLINK-31264          
1 58845U 24017V   26061.94123293 -.00000010  00000+0  11792-4 0  9997
2 58845  53.1615 325.2478 0001133  73.4795 286.6330 15.30202310117742
STARLINK-31273          
1 58846U 24017W   26061.89841576  .00008363  00000+0  29449-3 0  9998
2 58846  53.1598 236.0588 0001315  95.1457 264.9694 15.30162976119019
STARLINK-31262          
1 58847U 24017X   26061.94862314  .00000335  00000+0  23441-4 0  9996
2 58847  53.1614 325.2917 0001212  78.5113 281.6023 15.30199891117742
STARLINK-31238          
1 58853U 24019A   26062.01168053  .00000717  00000+0  35596-4 0  9991
2 58853  43.0030 286.4163 0001749 276.6997  83.3656 15.27565942118061
STARLINK-31158          
1 58854U 24019B   26062.01811098 -.00000295  00000+0 -11808-5 0  9990
2 58854  43.0048 286.4613 0001826 260.4862  99.5783 15.27576281118067
STARLINK-31237          
1 58855U 24019C   26062.00655212  .00002793  00000+0  11105-3 0  9995
2 58855  43.0050 286.3967 0001511 267.9295  92.1383 15.27563904118068
STARLINK-31244          
1 58856U 24019D   26062.02322785  .00002413  00000+0  97119-4 0  9993
2 58856  43.0002 286.5084 0001253 269.0614  91.0094 15.27604081118068
STARLINK-31226          
1 58858U 24019F   26062.03867010  .00005186  00000+0  19779-3 0  9996
2 58858  42.9998 286.6198 0000400 323.4387  36.6437 15.27588874118061
STARLINK-31197          
1 58859U 24019G   26062.05025789 -.00002542  00000+0 -82955-4 0  9990
2 58859  43.0029 286.7073 0001083 295.8055  64.2685 15.27557526118066
STARLINK-31213          
1 58860U 24019H   26062.02453839 -.00000203  00000+0  21594-5 0  9994
2 58860  43.0020 286.5181 0000965 286.2549  73.8197 15.27576308118060
STARLINK-31199          
1 58861U 24019J   26062.02068630 -.00000868  00000+0 -22013-4 0  9990
2 58861  43.0020 286.4903 0000935 292.9217  67.1536 15.27575529118062
STARLINK-31200          
1 58862U 24019K   26062.02196040  .00000359  00000+0  22579-4 0  9998
2 58862  43.0019 286.4972 0002021 271.4865  88.5755 15.27580510118062
STARLINK-31149          
1 58863U 24019L   26061.99497624  .00000471  00000+0  26642-4 0  9996
2 58863  43.0014 286.2961 0000916 273.7013  86.3734 15.27583120118068
STARLINK-31242          
1 58864U 24019M   26062.02839453 -.00001254  00000+0 -36043-4 0  9990
2 58864  43.0005 286.5461 0001162 272.1936  87.8783 15.27575031118060
STARLINK-31223          
1 58865U 24019N   26062.02967799 -.00000133  00000+0  46753-5 0  9990
2 58865  43.0013 286.5609 0001151 268.1669  91.9051 15.27576116118047
STARLINK-31219          
1 58866U 24019P   26062.00526486 -.00000347  00000+0 -31018-5 0  9999
2 58866  43.0028 286.3723 0001046 278.7342  81.3391 15.27575906118043
STARLINK-31198          
1 58867U 24019Q   26062.01424838  .00000389  00000+0  23677-4 0  9994
2 58867  43.0041 286.4223 0001571 274.5044  85.5628 15.27580356118045
