[{"OBJECT_NAME":"STARLINK-31264","OBJECT_ID":"2024-017V","EPOCH":"2026-03-02T22:35:22.525152","MEAN_MOTION":15.3020231,"ECCENTRICITY":0.0001133,"INCLINATION":53.1615,"RA_OF_ASC_NODE":325.2478,"ARG_OF_PERICENTER":73.4795,"MEAN_ANOMALY":286.633,"EPHEMERIS_TYPE":0,"CLASSIFICATION_TYPE":"U","NORAD_CAT_ID":58845,"ELEMENT_SET_NO":999,"REV_AT_EPOCH":11774,"BSTAR":1.1792e-5,"MEAN_MOTION_DOT":-1.0e-7,"MEAN_MOTION_DDOT":0},{"OBJECT_NAME":"STARLINK-31273","OBJECT_ID":"2024-017W","EPOCH":"2026-03-02T21:33:43.121664","MEAN_MOTION":15.30162976,"ECCENTRICITY":0.0001315,"INCLINATION":53.1598,"RA_OF_ASC_NODE":236.0588,"ARG_OF_PERICENTER":95.1457,"MEAN_ANOMALY":264.9694,"EPHEMERIS_TYPE":0,"CLASSIFICATION_TYPE":"U","NORAD_CAT_ID":58846,"ELEMENT_SET_NO":999,"REV_AT_EPOCH":11901,"BSTAR":0.00029449,"MEAN_MOTION_DOT":8.363e-5,"MEAN_MOTION_DDOT":0},{"OBJECT_NAME":"STARLINK-31262","OBJECT_ID":"2024-017X","EPOCH":"2026-03-02T22:46:01.039296","MEAN_MOTION":15.30199891,"ECCENTRICITY":0.0001212,"INCLINATION":53.1614,"RA_OF_ASC_NODE":325.2917,"ARG_OF_PERICENTER":78.5113,"MEAN_ANOMALY":281.6023,"EPHEMERIS_TYPE":0,"CLASSIFICATION_TYPE":"U","NORAD_CAT_ID":58847,"ELEMENT_SET_NO":999,"REV_AT_EPOCH":11774,"BSTAR":2.3441e-5,"MEAN_MOTION_DOT":3.35e-6,"MEAN_MOTION_DDOT":0},{"OBJECT_NAME":"STARLINK-31238","OBJECT_ID":"2024-019A","EPOCH":"2026-03-03T00:16:49.197792","MEAN_MOTION":15.27565942,"ECCENTRICITY":0.0001749,"INCLINATION":43.003,"RA_OF_ASC_NODE":286.4163,"ARG_OF_PERICENTER":276.6997,"MEAN_ANOMALY":83.3656,"EPHEMERIS_TYPE":0,"CLASSIFICATION_TYPE":"U","NORAD_CAT_ID":58853,"ELEMENT_SET_NO":999,"REV_AT_EPOCH":11806,"BSTAR":3.5596e-5,"MEAN_MOTION_DOT":7.17e-6,"MEAN_MOTION_DDOT":0},{"OBJECT_NAME":"STARLINK-31158","OBJECT_ID":"2024-019B","EPOCH":"2026-03-03T00:26:04.788672","MEAN_MOTION":15.27576281,"ECCENTRICITY":0.0001826,"INCLINATION":43.0048,"RA_OF_ASC_NODE":286.4613,"ARG_OF_PERICENTER":260.4862,"MEAN_ANOMALY":99.5783,"EPHEMERIS_TYPE":0,"CLASSIFICATION_TYPE":"U","NORAD_CAT_ID":58854,"ELEMENT_SET_NO":999,"REV_AT_EPOCH":11806,"BSTAR":-1.1808e-6,"MEAN_MOTION_DOT":-2.95e-6,"MEAN_MOTION_DDOT":0},{"OBJECT_NAME":"STARLINK-31237","OBJECT_ID":"2024-019C","EPOCH":"2026-03-03T00:09:26.103168","MEAN_MOTION":15.27563904,"ECCENTRICITY":0.0001511,"INCLINATION":43.005,"RA_OF_ASC_NODE":286.3967,"ARG_OF_PERICENTER":267.9295,"MEAN_ANOMALY":92.1383,"EPHEMERIS_TYPE":0,"CLASSIFICATION_TYPE":"U","NORAD_CAT_ID":58855,"ELEMENT_SET_NO":999,"REV_AT_EPOCH":11806,"BSTAR":0.00011105,"MEAN_MOTION_DOT":2.793e-5,"MEAN_MOTION_DDOT":0},{"OBJECT_NAME":"STARLINK-31244","OBJECT_ID":"2024-019D","EPOCH":"2026-03-03T00:33:26.886240","MEAN_MOTION":15.27604081,"ECCENTRICITY":0.0001253,"INCLINATION":43.0002,"RA_OF_ASC_NODE":286.5084,"ARG_OF_PERICENTER":269.0614,"MEAN_ANOMALY":91.0094,"EPHEMERIS_TYPE":0,"CLASSIFICATION_TYPE":"U","NORAD_CAT_ID":58856,"ELEMENT_SET_NO":999,"REV_AT_EPOCH":11806,"BSTAR":9.7119e-5,"MEAN_MOTION_DOT":2.413e-5,"MEAN_MOTION_DDOT":0},{"OBJECT_NAME":"STARLINK-31226","OBJECT_ID":"2024-019F","EPOCH":"2026-03-03T00:55:41.096640","MEAN_MOTION":15.27588874,"ECCENTRICITY":4.0e-5,"INCLINATION":42.9998,"RA_OF_ASC_NODE":286.6198,"ARG_OF_PERICENTER":323.4387,"MEAN_ANOMALY":36.6437,"EPHEMERIS_TYPE":0,"CLASSIFICATION_TYPE":"U","NORAD_CAT_ID":58858,"ELEMENT_SET_NO":999,"REV_AT_EPOCH":11806,"BSTAR":0.00019779,"MEAN_MOTION_DOT":5.186e-5,"MEAN_MOTION_DDOT":0},{"OBJECT_NAME":"STARLINK-31197","OBJECT_ID":"2024-019G","EPOCH":"2026-03-03T01:12:22.281696","MEAN_MOTION":15.27557526,"ECCENTRICITY":0.0001083,"INCLINATION":43.0029,"RA_OF_ASC_NODE":286.7073,"ARG_OF_PERICENTER":295.8055,"MEAN_ANOMALY":64.2685,"EPHEMERIS_TYPE":0,"CLASSIFICATION_TYPE":"U","NORAD_CAT_ID":58859,"ELEMENT_SET_NO":999,"REV_AT_EPOCH":11806,"BSTAR":-8.2955e-5,"MEAN_MOTION_DOT":-2.542e-5,"MEAN_MOTION_DDOT":0},{"OBJECT_NAME":"STARLINK-31213","OBJECT_ID":"2024-019H","EPOCH":"2026-03-03T00:35:20.116896","MEAN_MOTION":15.27576308,"ECCENTRICITY":9.65e-5,"INCLINATION":43.002,"RA_OF_ASC_NODE":286.5181,"ARG_OF_PERICENTER":286.2549,"MEAN_ANOMALY":73.8197,"EPHEMERIS_TYPE":0,"CLASSIFICATION_TYPE":"U","NORAD_CAT_ID":58860,"ELEMENT_SET_NO":999,"REV_AT_EPOCH":11806,"BSTAR":2.1594e-6,"MEAN_MOTION_DOT":-2.03e-6,"MEAN_MOTION_DDOT":0},{"OBJECT_NAME":"STARLINK-31199","OBJECT_ID":"2024-019J","EPOCH":"2026-03-03T00:29:47.296320","MEAN_MOTION":15.27575529,"ECCENTRICITY":9.35e-5,"INCLINATION":43.002,"RA_OF_ASC_NODE":286.4903,"ARG_OF_PERICENTER":292.9217,"MEAN_ANOMALY":67.1536,"EPHEMERIS_TYPE":0,"CLASSIFICATION_TYPE":"U","NORAD_CAT_ID":58861,"ELEMENT_SET_NO":999,"REV_AT_EPOCH":11806,"BSTAR":-2.2013e-5,"MEAN_MOTION_DOT":-8.68e-6,"MEAN_MOTION_DDOT":0},{"OBJECT_NAME":"STARLINK-31200","OBJECT_ID":"2024-019K","EPOCH":"2026-03-03T00:31:37.378560","MEAN_MOTION":15.2758051,"ECCENTRICITY":0.0002021,"INCLINATION":43.0019,"RA_OF_ASC_NODE":286.4972,"ARG_OF_PERICENTER":271.4865,"MEAN_ANOMALY":88.5755,"EPHEMERIS_TYPE":0,"CLASSIFICATION_TYPE":"U","NORAD_CAT_ID":58862,"ELEMENT_SET_NO":999,"REV_AT_EPOCH":11806,"BSTAR":2.2579e-5,"MEAN_MOTION_DOT":3.59e-6,"MEAN_MOTION_DDOT":0},{"OBJECT_NAME":"STARLINK-31149","OBJECT_ID":"2024-019L","EPOCH":"2026-03-02T23:52:45.947136","MEAN_MOTION":15.2758312,"ECCENTRICITY":9.16e-5,"INCLINATION":43.0014,"RA_OF_ASC_NODE":286.2961,"ARG_OF_PERICENTER":273.7013,"MEAN_ANOMALY":86.3734,"EPHEMERIS_TYPE":0,"CLASSIFICATION_TYPE":"U","NORAD_CAT_ID":58863,"ELEMENT_SET_NO":999,"REV_AT_EPOCH":11806,"BSTAR":2.6642e-5,"MEAN_MOTION_DOT":4.71e-6,"MEAN_MOTION_DDOT":0},{"OBJECT_NAME":"STARLINK-31242","OBJECT_ID":"2024-019M","EPOCH":"2026-03-03T00:40:53.287392","MEAN_MOTION":15.27575031,"ECCENTRICITY":0.0001162,"INCLINATION":43.0005,"RA_OF_ASC_NODE":286.5461,"ARG_OF_PERICENTER":272.1936,"MEAN_ANOMALY":87.8783,"EPHEMERIS_TYPE":0,"CLASSIFICATION_TYPE":"U","NORAD_CAT_ID":58864,"ELEMENT_SET_NO":999,"REV_AT_EPOCH":11806,"BSTAR":-3.6043e-5,"MEAN_MOTION_DOT":-1.254e-5,"MEAN_MOTION_DDOT":0},{"OBJECT_NAME":"STARLINK-31223","OBJECT_ID":"2024-019N","EPOCH":"2026-03-03T00:42:44.178336","MEAN_MOTION":15.27576116,"ECCENTRICITY":0.0001151,"INCLINATION":43.0013,"RA_OF_ASC_NODE":286.5609,"ARG_OF_PERICENTER":268.1669,"MEAN_ANOMALY":91.9051,"EPHEMERIS_TYPE":0,"CLASSIFICATION_TYPE":"U","NORAD_CAT_ID":58865,"ELEMENT_SET_NO":999,"REV_AT_EPOCH":11804,"BSTAR":4.6753e-6,"MEAN_MOTION_DOT":-1.33e-6,"MEAN_MOTION_DDOT":0},{"OBJECT_NAME":"STARLINK-31219","OBJECT_ID":"2024-019P","EPOCH":"2026-03-03T00:07:34.883904","MEAN_MOTION":15.27575906,"ECCENTRICITY":0.0001046,"INCLINATION":43.0028,"RA_OF_ASC_NODE":286.3723,"ARG_OF_PERICENTER":278.7342,"MEAN_ANOMALY":81.3391,"EPHEMERIS_TYPE":0,"CLASSIFICATION_TYPE":"U","NORAD_CAT_ID":58866,"ELEMENT_SET_NO":999,"REV_AT_EPOCH":11804,"BSTAR":-3.1018e-6,"MEAN_MOTION_DOT":-3.47e-6,"MEAN_MOTION_DDOT":0},{"OBJECT_NAME":"STARLINK-31198","OBJECT_ID":"2024-019Q","EPOCH":"2026-03-03T00:20:31.060032","MEAN_MOTION":15.27580356,"ECCENTRICITY":0.0001571,"INCLINATION":43.0041,"RA_OF_ASC_NODE":286.4223,"ARG_OF_PERICENTER":274.5044,"MEAN_ANOMALY":85.5628,"EPHEMERIS_TYPE":0,"CLASSIFICATION_TYPE":"U","NORAD_CAT_ID":58867,"ELEMENT_SET_NO":999,"REV_AT_EPOCH":11804,"BSTAR":2.3677e-5,"MEAN_MOTION_DOT":3.89e-6,"MEAN_MOTION_DDOT":0}]
